[{"OBJECT_NAME":"FLOCK 4G-30","OBJECT_ID":"2025-009BY","EPOCH":"2026-03-09T17:00:32.842080","MEAN_MOTION":15.27244548,"ECCENTRICITY":0.00037948,"INCLINATION":97.3969,"RA_OF_ASC_NODE":150.6012,"ARG_OF_PERICENTER":342.4152,"MEAN_ANOMALY":17.6955,"EPHEMERIS_TYPE":0,"CLASSIFICATION_TYPE":"U","NORAD_CAT_ID":62679,"ELEMENT_SET_NO":999,"REV_AT_EPOCH":12134,"BSTAR":0.00049474629,"MEAN_MOTION_DOT":0.00013147,"MEAN_MOTION_DDOT":0},{"OBJECT_NAME":"STARLINK-35833","OBJECT_ID":"2025-265AC","EPOCH":"2026-03-09T22:08:20.691744","MEAN_MOTION":15.27594133,"ECCENTRICITY":0.00010771,"INCLINATION":42.9946,"RA_OF_ASC_NODE":277.0887,"ARG_OF_PERICENTER":296.0091,"MEAN_ANOMALY":64.065,"EPHEMERIS_TYPE":0,"CLASSIFICATION_TYPE":"U","NORAD_CAT_ID":66542,"ELEMENT_SET_NO":999,"REV_AT_EPOCH":1714,"BSTAR":0.00087240951,"MEAN_MOTION_DOT":0.00023833,"MEAN_MOTION_DDOT":0}]
